ONEWEB-0043             
1 45149U 20008U   24035.98172323  .00000026  00000+0  38354-4 0  9996
2 45149  87.8914 207.7387 0001677 113.9508 246.1795 13.10378144195915
ONEWEB-0044             
1 45150U 20008V   24035.93462690  .00000411  00000+0  11403-2 0  9994
2 45150  87.8906 207.7448 0001586 108.3402 251.7898 13.10370556195427
ONEWEB-0045             
1 45151U 20008W   24035.94085277  .00000083  00000+0  19949-3 0  9997
2 45151  87.8989 192.6288 0001615  95.0793 265.0520 13.11415799197265
ONEWEB-0047             
1 45152U 20008X   24035.92650317  .00000675  00000+0  18986-2 0  9995
2 45152  87.8909 207.7482 0001496  99.5956 260.5340 13.10372078195145
ONEWEB-0048             
1 45153U 20008Y   24035.92161724  .00000680  00000+0  19121-2 0  9993
2 45153  87.8912 207.7620 0001527  98.3784 261.7516 13.10376323194756
ONEWEB-0049             
1 45154U 20008Z   24035.92325597  .00000681  00000+0  19139-2 0  9994
2 45154  87.8916 207.7361 0001175 115.2057 244.9193 13.10373531194970
ONEWEB-0051             
1 45155U 20008AA  24035.93925632 -.00000024  00000+0 -10214-3 0  9991
2 45155  87.8989 192.6701 0001489  91.2417 268.8882 13.11417626197947
ONEWEB-0052             
1 45156U 20008AB  24035.92000835  .00000652  00000+0  18325-2 0  9995
2 45156  87.8909 207.7182 0001240 120.6231 239.5019 13.10374125194889
